EUTELSAT 7A             
1 28187U 04008A   25332.48031001  .00000124  00000+0  00000+0 0  9995
2 28187   5.3189  74.4103 0001089 194.6175 192.3163  1.00272581 79348
EUTELSAT 174A           
1 28924U 05052A   25332.54419882  .00000030  00000+0  00000+0 0  9994
2 28924   3.7089  79.0180 0006321 167.1776 191.4194  1.00270270 50313
EUTELSAT HOTBIRD 13B    
1 29270U 06032A   25332.58582524  .00000176  00000+0  00000+0 0  9997
2 29270   1.1408  84.4915 0003512 155.9133  71.3421  1.00269543 45293
EUTELSAT HOTBIRD 13C    
1 33459U 08065A   25332.50076348 -.00000240  00000+0  00000+0 0  9996
2 33459   2.4316  81.5756 0000914 166.2329 324.0715  1.00050997 45335
EUTELSAT 36B            
1 36101U 09065A   25332.51792359  .00000132  00000+0  00000+0 0  9991
2 36101   0.0450  16.8457 0006136 231.6855  56.0990  1.00271810 58696
EUTELSAT KA-SAT 9A      
1 37258U 10069A   25332.50951686  .00000082  00000+0  00000+0 0  9994
2 37258   0.0551 324.8541 0001378 229.2144  66.0528  1.00271825 41994
EUTELSAT 7 WEST A       
1 37816U 11051A   25332.57767852 -.00000040  00000+0  00000+0 0  9998
2 37816   0.0623 353.6648 0005979 227.4827  47.2546  1.00271500 51869
EUTELSAT 16A            
1 37836U 11057A   25332.58244522  .00000124  00000+0  00000+0 0  9993
2 37836   0.0632  12.2196 0006022 242.5208  38.6699  1.00271885  5316
